TEMPEST-D               
1 43547U 98067NV  19133.60939851  .00003448  00000-0  52649-4 0  9990
2 43547  51.6376 167.3321 0006037 353.2845   6.8065 15.57498149 46954
RAINCUBE                
1 43548U 98067NW  19133.55710329  .00011941  00000-0  14733-3 0  9990
2 43548  51.6361 164.7257 0006443   4.4738 355.6311 15.60622869 47430
HALOSAT                 
1 43549U 98067NX  19133.55921454  .00010083  00000-0  12558-3 0  9993
2 43549  51.6367 164.7468 0006337   7.0995 353.0087 15.60585300 46997
ENDUROSAT ONE           
1 43551U 98067NZ  19133.55030649  .00013907  00000-0  16234-3 0  9996
2 43551  51.6368 163.1931 0006985  13.0935 347.0239 15.61907922 47429
EQUISAT                 
1 43552U 98067PA  19133.31226752  .00011579  00000-0  14174-3 0  9997
2 43552  51.6380 165.3662 0007112  11.5444 348.5711 15.60863977 47331
AEROCUBE 12A            
1 43556U 18046C   19133.69597151  .00001068  00000-0  50462-4 0  9998
2 43556  51.6405 229.3076 0007899 303.3349  56.6874 15.28604141 46056
AEROCUBE 12B            
1 43557U 18046D   19133.70658751  .00000605  00000-0  34202-4 0  9995
2 43557  51.6427 229.3751 0007999 303.5283  56.4932 15.28490953 46003
UITMSAT-1               
1 43589U 98067PD  19133.50883162  .00013421  00000-0  16318-3 0  9992
2 43589  51.6355 165.1402 0006556  19.0447 341.0791 15.60880896 43094
MAYA-1                  
1 43590U 98067PE  19133.31232423  .00012812  00000-0  15599-3 0  9994
2 43590  51.6351 166.0804 0006621  18.7920 341.3317 15.60893941 42993
BHUTAN-1                
1 43591U 98067PF  19133.36830271  .00012898  00000-0  15665-3 0  9993
2 43591  51.6369 165.7199 0006862  19.9028 340.2232 15.60950753 43007
SIRIUSSAT-1             
1 43595U 98067PG  19133.91317627  .00012236  00000-0  15306-3 0  9991
2 43595  51.6357 164.0922 0004200 348.4372  11.6524 15.60241320 42252
SIRIUSSAT-2             
1 43596U 98067PH  19133.55551352  .00012664  00000-0  15921-3 0  9995
2 43596  51.6368 166.2328 0004765 345.8247  14.2612 15.60069177 42195
TANUSHA-3               
1 43597U 98067PJ  19133.90570649  .00014615  00000-0  17389-3 0  9993
2 43597  51.6352 163.2703 0004643   0.6980 359.4020 15.61373725 42261
SURFSAT                 
1 43614U 18070B   19133.86425134  .00002967  00000-0  80820-4 0  9990
2 43614  93.0263 348.8985 0018968  85.0875 275.2543 15.37374351 36908
CP7 (DAVE)              
1 43615U 18070C   19133.86825361  .00002744  00000-0  74920-4 0  9994
2 43615  93.0265 348.9021 0019122  84.7219 275.6216 15.37305394 36906
ELFIN-B                 
1 43616U 18070D   19133.82452955  .00003859  00000-0  10337-3 0  9995
2 43616  93.0230 348.8031 0019980  87.9707 272.3834 15.37850467 36904
ELFIN-A                 
1 43617U 18070E   19133.88435584  .00004191  00000-0  11218-3 0  9990
2 43617  93.0286 349.0150 0019053  85.0696 275.2733 15.37887921 36914
CUBEBEL-1 (BSUSAT-1)    
1 43666U 18083E   19133.94070758  .00001252  00000-0  65778-4 0  9999
2 43666  97.5225 158.6592 0014094 318.5285  91.6193 15.17504730 29860
DEBRISSAT-2             
1 43680U 98067PR  19133.90238189  .00030281  00000-0  34653-3 0  9996
2 43680  51.6388 163.2784 0004813  17.0339 343.0789 15.61859697 51001
CICERO 10               
1 43690U 18088A   19133.67291542  .00001112  00000-0  50312-4 0  9990
2 43690  85.0370 342.2273 0014655 348.6947  11.3962 15.19591797 27883
IRVINE01                
1 43693U 18088D   19133.83221098  .00002608  00000-0  11469-3 0  9990
2 43693  85.0351 341.8028 0017380 331.7615  28.2683 15.21233688 27917
PROXIMA I               
1 43694U 18088E   19133.92305055  .00001037  00000-0  44400-4 0  9994
2 43694  85.0313 341.5951 0018062 321.5355  38.4598 15.21321535 27944
PROXIMA II              
1 43696U 18088G   19133.85655060  .00001001  00000-0  42753-4 0  9992
2 43696  85.0314 341.6398 0018101 321.7251  38.2704 15.21326862 27927
FACSAT-1                
1 43721U 18096C   19133.93824165  .00002152  00000-0  85679-4 0  9995
2 43721  97.4614 203.8597 0019881  96.0940 264.2564 15.26182992 25280
CENTAURI-2              
1 43722U 18096D   19133.85807721  .00002488  00000-0  98038-4 0  9991
2 43722  97.4614 203.8124 0020041  97.0814 263.2704 15.26381451 25262
INNOSAT-2               
1 43738U 18096V   19133.90434670  .00003106  00000-0  11373-3 0  9997
2 43738  97.4617 204.3625 0026384 108.0979 252.3138 15.28483678 25317
SIRION PATHFINDER-2     
1 43759U 18099B   19133.91365093 -.00000174  00000-0 -10603-4 0  9996
2 43759  97.7465 206.3330 0015808  81.2701 279.0309 14.95111973 24081
CORVUS-BC 4             
1 43767U 18099K   19133.90641987 -.00000080  00000-0 -21271-5 0  9993
2 43767  97.7453 206.1580 0013372  84.2347 276.0397 14.94556647 24078
SHIELDS 1               
1 43850U 18104B   19133.59515470  .00000042  00000-0  00000-0 0  9993
2 43850  85.0273  80.3035 0017593 100.5785 259.7435 15.21045198 22530
STF-1                   
1 43852U 18104D   19133.39127391  .00000042  00000-0  00000-0 0  9994
2 43852  85.0328  80.6196 0017380 114.0770 246.2350 15.20525352 22498
ZACUBE-2                
1 43907U 18111AH  19133.83012151  .00000595  00000-0  27144-4 0  9994
2 43907  97.2927  40.0468 0023317 115.8109 244.5537 15.24144641 20985
LUME 1                  
1 43908U 18111AJ  19133.95736377  .00001274  00000-0  54694-4 0  9996
2 43908  97.2926  40.1788 0023288 115.4651 244.9000 15.24254642 21002
AOBA VELOX-IV           
1 43940U 19003J   19133.82615160  .00002324  00000-0  99078-4 0  9997
2 43940  97.2791 192.7955 0024068 194.3463 256.9926 15.23664009 17626
CATSAT-2                
1 44029U 98067PV  19133.71195245  .00008638  00000-0  12942-3 0  9996
2 44029  51.6386 171.0227 0005695  15.8778 344.2391 15.55817548 15978
DELPHINI                
1 44030U 98067PW  19133.51662557  .00010007  00000-0  14843-3 0  9996
2 44030  51.6378 171.9627 0005473  14.4262 345.6884 15.55885240 15911
UNITE                   
1 44031U 98067PX  19133.53484856  .00006675  00000-0  10379-3 0  9999
2 44031  51.6381 172.0854 0003916  14.6047 345.5056 15.55234258 15910
TECHEDSAT 8             
1 44032U 98067PY  19133.70330915  .00021629  00000-0  28719-3 0  9998
2 44032  51.6376 170.2104 0005185   9.7944 350.3148 15.58147285 15938
CATSAT-1                
1 44033U 98067PZ  19133.51919032  .00007741  00000-0  11681-3 0  9990
2 44033  51.6388 171.9858 0005511  15.6742 344.4419 15.55798545 15855
